ORBITAL FACTORY 2 (OF-2)
1 45113U 19071C   22165.78147743  .00026366  00000+0  55086-3 0  9998
2 45113  51.6397  72.5133 0010346 154.6471 205.5025 15.45265223132965
M2 PATHFINDER           
1 45727U 20037E   22166.00526901  .00000619  00000+0  66517-4 0  9991
2 45727  97.7340 341.5131 0013602  48.3621 311.8753 14.92015311106463
NETSAT-4                
1 46504U 20068U   22165.78035037  .00003228  00000+0  24158-3 0  9991
2 46504  97.7241 105.5737 0012035 340.9182  19.1620 15.03409245 93641
NETSAT-3                
1 46505U 20068V   22165.79555927  .00001608  00000+0  12286-3 0  9997
2 46505  97.7247 105.5126 0011420 352.2794   7.8356 15.03351441 93657
NETSAT-1                
1 46506U 20068W   22165.81169238  .00001791  00000+0  13648-3 0  9993
2 46506  97.7261 105.4633 0009998   7.4563 352.6815 15.03310798 93657
NETSAT-2                
1 46507U 20068X   22165.82119692  .00002189  00000+0  16593-3 0  9998
2 46507  97.7255 105.4646 0008870  15.0823 345.0664 15.03290981 93601
SPOC                    
1 46921U 98067RR  22164.72980145  .00617568  18845-3  98955-3 0  9994
2 46921  51.6238 306.6057 0010971 305.1886  54.8097 16.02892884 91422
NEUTRON-1               
1 46923U 98067RT  22165.64961231  .00554232  15343-3  85261-3 0  9997
2 46923  51.6237 302.2583 0011192 309.9455  50.0572 16.03567966 91594
DESCENT                 
1 46927U 98067RX  22166.43068398  .01528414  11775-4  95811-3 0  9993
2 46927  51.6219 296.1648 0014110 314.5267  45.4596 16.16830215 91641
SAI-1 NANOCONNECT-2     
1 47701U 21015C   22166.20785316  .00011464  00000+0  43093-3 0  9994
2 47701  97.4237 243.1468 0012898 103.3961 256.8717 15.27245910 71877
TSURU                   
1 47927U 98067SD  22166.46831643  .00413282  78863-4  10571-2 0  9993
2 47927  51.6302 311.5557 0010128 299.1468  60.8525 15.94675841 71482
MAYA-2                  
1 47929U 98067SF  22165.78934853  .00340730  55891-4  93482-3 0  9992
2 47929  51.6294 315.2756 0009357 294.4654  65.5376 15.93403884 71338
GUARANISAT-1            
1 47931U 98067SH  22166.38964514  .00379634  68020-4  96843-3 0  9996
2 47931  51.6280 311.7891 0009970 299.8958  60.1059 15.94739777 71472
BEESAT-6                
1 47957U 21022AB  22166.22371601  .00004930  00000+0  31818-3 0  9997
2 47957  97.5280  65.8690 0020883 149.8902 338.0458 15.08545549 67463
SMOG-1                  
1 47964U 21022AJ  22165.65718679  .00007700  00000+0  47587-3 0  9999
2 47964  97.5320  66.3344 0019743 140.7121 219.5545 15.09974045 66461
MMSATS-1                
1 47976U 98067SJ  22165.95375557  .00022411  00000+0  28913-3 0  9990
2 47976  51.6437 337.4926 0000814 342.3489  17.7475 15.58901497 69871
BCCSAT-1                
1 48041U 21022AK  22166.37026928  .00005976  00000+0  37917-3 0  9994
2 48041  97.5319  66.6604 0016505 135.6227 224.6328 15.09153936 66522
BEESAT-5                
1 48083U 21022AM  22166.22143998  .00005760  00000+0  36953-3 0  9991
2 48083  97.5305  65.8685 0020709 150.2269   1.7956 15.08698828 66594
BEESAT-7                
1 48084U 21022AN  22166.49345653  .00006060  00000+0  38926-3 0  9999
2 48084  97.5306  66.1420 0021509 149.4404  25.1887 15.08615879 66225
BEESAT-8                
1 48085U 21022AP  22165.49838324  .00004935  00000+0  31865-3 0  9995
2 48085  97.5273  65.1637 0021364 152.4451  20.1345 15.08519060 66637
RAMSAT                  
1 48850U 98067SL  22165.73549356  .00076955  00000+0  62559-3 0  9994
2 48850  51.6372 331.5247 0000393 321.6962  38.4007 15.70000945 56903
BD-28                   
1 48867U 98067SN  22165.85556854  .00107537  00000+0  74161-3 0  9999
2 48867  51.6332 328.5216 0001838 242.7670 117.3142 15.73757741 55703
BINAR-1                 
1 49272U 98067SR  22166.19647823  .00089270  00000+0  72822-3 0  9990
2 49272  51.6354 333.0759 0004872 278.5339  81.5106 15.69844134 39310
MAYA-3                  
1 49273U 98067SS  22165.78575111  .00185665  00000+0  99176-3 0  9991
2 49273  51.6318 331.0500 0007184 279.8727  80.1463 15.79256086 39301
MAYA-4                  
1 49274U 98067ST  22166.37916099  .00173645  00000+0  95042-3 0  9995
2 49274  51.6350 328.2654 0006844 279.9155  80.1074 15.78756655 39397
CUAVA-1                 
1 49275U 98067SU  22166.52655370  .00105149  00000+0  70381-3 0  9998
2 49275  51.6347 329.0291 0005535 289.1920 178.3218 15.74444492 39343
BEIJING 1               
1 28890U 05043A   22166.42019907  .00000153  00000+0  40323-4 0  9992
2 28890  98.1173 288.8616 0015292 176.0762 184.0571 14.61453152886847
HJ-1A                   
1 33320U 08041A   22166.52456004  .00000264  00000+0  43514-4 0  9999
2 33320  97.6767 199.6738 0019672 236.5644 123.3691 14.77846968742102
HJ-1B                   
1 33321U 08041B   22166.13205733  .00000646  00000+0  96345-4 0  9992
2 33321  97.6935 202.8593 0032721 256.8050 102.9531 14.77735171742044
YAOGAN 4                
1 33446U 08061A   22166.54920204  .00000556  00000+0  85079-4 0  9996
2 33446  97.8172 106.7359 0017207 136.4666 223.7906 14.77378530729312
DEIMOS-1                
1 35681U 09041A   22166.42511088  .00000334  00000+0  60513-4 0  9991
2 35681  97.7142  17.6095 0000872 157.3221 202.8046 14.72054933691478
UK-DMC 2                
1 35683U 09041C   22166.44997574  .00000456  00000+0  81021-4 0  9995
2 35683  97.6966 339.6390 0001075  92.6503 267.4859 14.71413064691212
RISAT 1                 
1 38248U 12017A   22166.48027672  .00003558  00000+0  21130-3 0  9999
2 38248  97.5514 177.8772 0002112 261.8865  98.2126 15.11952926558545
DMC3-FM1                
1 40715U 15032A   22166.50876214  .00000279  00000+0  41556-4 0  9990
2 40715  97.8482  53.3657 0006241 152.6245 207.5298 14.82121355373002
DMC3-FM2                
1 40716U 15032B   22166.12616390  .00000278  00000+0  41520-4 0  9996
2 40716  97.8521  53.6306 0008129 160.1815 199.9726 14.82112770372959
DMC3-FM3                
1 40717U 15032C   22166.55438323  .00000282  00000+0  41934-4 0  9996
2 40717  97.8557  54.9600 0010135 158.8298 201.3337 14.82141214373018
NOAA 15                 
1 25338U 98030A   22166.45541282  .00000207  00000+0  10487-3 0  9990
2 25338  98.6438 196.0173 0009326 307.5462  52.4870 14.26138443252983
DMSP 5D-3 F15 (USA 147) 
1 25991U 99067A   22166.50730965  .00000087  00000+0  66966-4 0  9990
2 25991  99.0520 158.0502 0009905 188.3147 283.8320 14.16544951163511
METEOSAT-8 (MSG-1)      
1 27509U 02040B   22163.84965439  .00000142  00000+0  00000+0 0  9996
2 27509   8.0294  50.6838 0001938   4.0461 193.7040  1.00267639 72562
DMSP 5D-3 F16 (USA 172) 
1 28054U 03048A   22166.49057030 -.00000001  00000+0  23264-4 0  9991
2 28054  98.9877 157.2911 0006832 331.5849 182.2215 14.13674637962748
NOAA 18                 
1 28654U 05018A   22166.43561747  .00000179  00000+0  12065-3 0  9996
2 28654  98.9491 236.8732 0013705 341.5062  18.5610 14.12741843879780
METEOSAT-9 (MSG-2)      
1 28912U 05049B   22164.89042624  .00000133  00000+0  00000+0 0  9995
2 28912   6.0122  66.3295 0001646   4.4402 197.5995  1.00273152 60357
EWS-G1 (GOES 13)        
1 29155U 06018A   22166.23799434  .00000042  00000+0  00000+0 0  9999
2 29155   0.5963  96.9105 0003036  78.8160 234.7746  1.00268666 58842
DMSP 5D-3 F17 (USA 191) 
1 29522U 06050A   22166.45004689  .00000005  00000+0  25659-4 0  9999
2 29522  98.7663 181.5432 0008633 267.3930  92.6255 14.14101599805620
FENGYUN 3A              
1 32958U 08026A   22166.49304859  .00000081  00000+0  58859-4 0  9999
2 32958  98.5024 129.2047 0009486  35.3488 324.8316 14.18721738728051
FENGYUN 2E              
1 33463U 08066A   22165.77092296 -.00000199  00000+0  00000+0 0  9995
2 33463   5.9012  65.3306 0004205   8.1157 193.5595  1.00265440 49411
NOAA 19                 
1 33591U 09005A   22166.50748512  .00000189  00000+0  12728-3 0  9994
2 33591  99.1476 200.6036 0013782 189.2887 170.8031 14.12576646688172
GOES 14                 
1 35491U 09033A   22166.43060080 -.00000088  00000+0  00000+0 0  9990
2 35491   0.3163  95.3738 0012004 115.0799 103.6280  1.00269739 47481
METEOR-M 1              
1 35865U 09049A   22166.49666070  .00000084  00000+0  56700-4 0  9997
2 35865  98.5279 137.0302 0001448 203.8302 156.2810 14.22338353661404
DMSP 5D-3 F18 (USA 210) 
1 35951U 09057A   22166.42263678  .00000219  00000+0  13902-3 0  9998
2 35951  98.7217 145.8591 0012355  92.2135 268.0453 14.13510889652821
GOES 15                 
1 36411U 10008A   22166.40221628  .00000059  00000+0  00000+0 0  9998
2 36411   0.2879 102.6765 0002319 359.2026 178.2216  1.00266576 45001
COMS 1                  
1 36744U 10032A   22165.80435709 -.00000340  00000+0  00000+0 0  9998
2 36744   1.0612  92.7871 0001227   0.5473 227.4606  1.00270419 36416
FENGYUN 3B              
1 37214U 10059A   22166.08774850  .00000007  00000+0  27654-4 0  9992
2 37214  99.0911 172.0190 0022268   4.7747 355.3636 14.14256953600622
SUOMI NPP               
1 37849U 11061A   22166.50803492  .00000066  00000+0  51869-4 0  9992
2 37849  98.7328 105.0869 0001076  82.4646 338.2241 14.19528457550912
FENGYUN 2F              
1 38049U 12002A   22165.80819181 -.00000355  00000+0  00000+0 0  9993
2 38049   3.7859  79.7207 0002541   3.6284 222.5696  1.00280081 38200
METEOSAT-10 (MSG-3)     
1 38552U 12035B   22165.27840618  .00000066  00000+0  00000+0 0  9996
2 38552   1.5181  40.9601 0000679  51.7804 279.2348  1.00269230 36173
METOP-B                 
1 38771U 12049A   22166.44457242  .00000100  00000+0  65579-4 0  9997
2 38771  98.6957 226.2271 0001922  83.9776 337.4246 14.21489073505444
FENGYUN 3C              
1 39260U 13052A   22166.07959565  .00000041  00000+0  41846-4 0  9995
2 39260  98.4533 194.3134 0009901 283.9897  76.0182 14.15926003451582
METEOR-M 2              
1 40069U 14037A   22166.49214591  .00000010  00000+0  23762-4 0  9990
2 40069  98.4309 184.3862 0005258 340.8708  19.2274 14.20710765411583
